[{"OBJECT_NAME":"STARLINK-32190","OBJECT_ID":"2024-133T","EPOCH":"2026-03-09T21:31:30.584928","MEAN_MOTION":15.30199688,"ECCENTRICITY":7.685e-5,"INCLINATION":53.1597,"RA_OF_ASC_NODE":295.9809,"ARG_OF_PERICENTER":117.9999,"MEAN_ANOMALY":242.108,"EPHEMERIS_TYPE":0,"CLASSIFICATION_TYPE":"U","NORAD_CAT_ID":60318,"ELEMENT_SET_NO":999,"REV_AT_EPOCH":9167,"BSTAR":-5.5474253e-5,"MEAN_MOTION_DOT":-2.001e-5,"MEAN_MOTION_DDOT":0},{"OBJECT_NAME":"TOMORROW-S2","OBJECT_ID":"2024-149T","EPOCH":"2026-03-09T18:02:42.746496","MEAN_MOTION":15.30674935,"ECCENTRICITY":0.0001648,"INCLINATION":97.3857,"RA_OF_ASC_NODE":150.0385,"ARG_OF_PERICENTER":234.3331,"MEAN_ANOMALY":125.7757,"EPHEMERIS_TYPE":0,"CLASSIFICATION_TYPE":"U","NORAD_CAT_ID":60485,"ELEMENT_SET_NO":999,"REV_AT_EPOCH":8686,"BSTAR":0.00027683033,"MEAN_MOTION_DOT":8.133e-5,"MEAN_MOTION_DDOT":0}]
